NAYIF-1 (EO-88)         
1 42017U 17008BX  23094.89211152  .00101204  00000+0  13296-2 0  9997
2 42017  97.2211 164.1565 0003446 242.5856 117.5050 15.58161389341986
ZHUHAI-1 02 (CAS-4B)    
1 42759U 17034B   23095.17608192  .00014530  00000+0  75153-3 0  9991
2 42759  43.0174 161.1532 0011026 343.9836 112.8830 15.16036726320558
ZHUHAI-1 01 (CAS-4A)    
1 42761U 17034D   23095.25068490  .00012368  00000+0  64076-3 0  9993
2 42761  43.0162 159.2927 0011933 346.0467  61.0961 15.16079128320570
MAX VALIER SAT          
1 42778U 17036P   23094.86715376  .00023482  00000+0  68376-3 0  9997
2 42778  97.1667 131.5773 0008392  21.3463 338.8129 15.35370253321468
RADFXSAT (FOX-1B)       
1 43017U 17073E   23094.49963486  .00010851  00000+0  77288-3 0  9999
2 43017  97.6414 341.7609 0235593 312.7320  45.4274 14.85044488290242
FOX-1D (AO-92)          
1 43137U 18004AC  23094.87847255  .00036313  00000+0  88357-3 0  9994
2 43137  97.3335 173.5415 0006061  55.9635 304.2187 15.40849695291000
DIWATA-2B               
1 43678U 18084H   23095.21808773  .00003202  00000+0  31238-3 0  9990
2 43678  98.0075 237.7795 0010410  48.7188 311.4930 14.93137278241374
ES'HAIL 2               
1 43700U 18090A   23094.88590972  .00000148  00000+0  00000+0 0  9999
2 43700   0.0152 248.7800 0001185 142.1793 146.7099  1.00274116 15953
FOX-1CLIFF (AO-95)      
1 43770U 18099N   23095.22025253  .00006179  00000+0  51360-3 0  9998
2 43770  97.5796 158.7382 0013520  18.3152 341.8555 14.99003733236675
ITASAT 1                
1 43786U 18099AE  23095.14245283  .00005638  00000+0  47124-3 0  9995
2 43786  97.5853 159.6954 0014699  16.1678 344.0012 14.98810776236707
JY1SAT (JO-97)          
1 43803U 18099AX  23095.15581585  .00007005  00000+0  56809-3 0  9994
2 43803  97.5779 159.6381 0013516   3.9652 356.1676 14.99903345236741
UWE-4                   
1 43880U 18111E   23094.79683327  .00008435  00000+0  65928-3 0  9990
2 43880  97.6453   1.1418 0018368  65.1785 295.1348 15.01199638233353
NEXUS (FO-99)           
1 43937U 19003F   23094.84771890  .00046985  00000+0  98529-3 0  9998
2 43937  97.0966 123.3247 0015950 175.9183 184.2200 15.45117814234699
JAISAT-1                
1 44419U 19038F   23094.90674128  .00027226  00000+0  10379-2 0  9998
2 44419  97.6701  74.4054 0015144 188.3731 171.7257 15.26561744207341
DUCHIFAT-3              
1 44854U 19089C   23095.19774944  .00012681  00000+0  88077-3 0  9996
2 44854  36.9650 167.1024 0007742  84.8228 300.8685 15.04963075181830
CAS-6 (TIANQIN 1)       
1 44881U 19093C   23095.12973690  .00001851  00000+0  23767-3 0  9995
2 44881  97.8636 174.8257 0013876 320.8770  39.1443 14.82343954177970
RS-44 & BREEZE-KM R/B   
1 44909U 19096E   23094.88813493  .00000012  00000+0  71887-5 0  9991
2 44909  82.5250  36.6433 0217598 358.6732   1.3764 12.79719703152837
HUSKYSAT-1 (HO-107)     
1 45119U 19071J   23095.10141935  .01311139  10624-2  16216-2 0  9993
2 45119  51.6197  38.3370 0007729 162.9010 197.2265 16.07355446178817
BY70-2                  
1 45857U 20042B   23095.16622316  .00028231  00000+0  31100-2 0  9995
2 45857  97.9279 174.9700 0009303 231.9207 128.0926 14.87452899148672
SALSAT                  
1 46495U 20068K   23094.83551049  .00006731  00000+0  45306-3 0  9994
2 46495  97.7637  42.1348 0016374  17.2714 342.9067 15.06944544138021
BY70-3                  
1 46839U 20079N   23095.18859571  .03563386  22712-5  21306-2 0  9998
2 46839  97.1362 173.2591 0013349 272.4977 143.8692 16.18245037135577
RADFXSAT-2 (AO-109)     
1 47311U 21002C   23094.86943982  .00027471  00000+0  79938-3 0  9997
2 47311  60.6837 339.5972 0028789 136.2945 224.0434 15.34935094123019
UVSQ-SAT                
1 47438U 21006AB  23094.39164294  .00020458  00000+0  89669-3 0  9990
2 47438  97.3937 152.6526 0009294 348.8082  11.2946 15.21985241121410
DIY-1 (ARDUIQUBE)       
1 47963U 21022AH  23094.94668977  .00110660  00000+0  28630-2 0  9994
2 47963  97.5064   0.7155 0010137 170.3719 189.7722 15.38600686111259
XW-3 (CAS-9)            
1 50466U 21131B   23095.22329059  .00001105  00000+0  37371-3 0  9990
2 50466  98.5531 176.9983 0004198  16.0814 344.0506 14.38804271 66865
TEVEL-3                 
1 50988U 22002E   23095.16097519  .00027320  00000+0  11918-2 0  9998
2 50988  97.4416 162.7570 0010151 129.2894 283.0839 15.22080124 67645
TEVEL-8                 
1 50989U 22002F   23095.17728297  .00027263  00000+0  11914-2 0  9996
2 50989  97.4436 162.8255 0010284 130.1804 285.3492 15.22020383 67649
TEVEL-5                 
1 50998U 22002Q   23095.14271705  .00028335  00000+0  12101-2 0  9990
2 50998  97.4393 163.0430 0011043 126.1754 288.1959 15.22786778 67660
TEVEL-6                 
1 50999U 22002R   23095.14137664  .00028104  00000+0  12003-2 0  9991
2 50999  97.4388 163.0373 0010801 125.3507 289.3864 15.22790224 67668
TEVEL-1                 
1 51013U 22002AF  23095.17009428  .00027321  00000+0  11932-2 0  9998
2 51013  97.4415 162.7206 0010127 129.7286 290.0457 15.22042900 67647
TEVEL-7                 
1 51062U 22002CG  23095.17893064  .00027372  00000+0  11958-2 0  9993
2 51062  97.4424 162.8014 0010152 129.9775 285.3809 15.22031518 67643
TEVEL-4                 
1 51063U 22002CH  23095.18333341  .00027234  00000+0  11912-2 0  9999
2 51063  97.4429 162.7947 0010047 129.5917 288.5772 15.21992244 67645
TEVEL-2                 
1 51069U 22002CP  23095.16288729  .00027436  00000+0  11968-2 0  9997
2 51069  97.4413 162.7341 0010185 128.7992 283.8054 15.22081463 67643
GREENCUBE               
1 53106U 22080B   23088.05176028 -.00000003  00000+0  00000+0 0  9999
2 53106  70.1795 347.5677 0008286 204.3079 155.7190  6.42557135 16603
RS29S (SXC3-2110 CYCLO*)
1 53373U 22096D   23095.09871440  .00039099  00000+0  11775-2 0  9994
2 53373  97.4200   0.7795 0003557  73.9733  35.3046 15.34231945 36462
RS32S (SXC3-212 MONITO*)
1 53374U 22096E   23095.17268615  .00035619  00000+0  10856-2 0  9991
2 53374  97.4192   0.8263 0003614  67.3005  75.3470 15.33874424 36477
RS34S (SXC3-218 KUZBAS*)
1 53375U 22096F   23095.18376405  .00031102  00000+0  99012-3 0  9995
2 53375  97.4207   0.6866 0003293  71.0207  86.4764 15.32513506 36469
RS23S (SXC3-21 UTMN)    
1 53376U 22096G   23095.16028296  .00032166  00000+0  10103-2 0  9990
2 53376  97.4201   0.7079 0003448  73.8195  63.5432 15.32935465 36469
RS28S (SXC3-214 MIET-A*)
1 53377U 22096H   23095.10689550  .00029430  00000+0  94053-3 0  9998
2 53377  97.4203   0.6204 0003432  66.5698  40.9832 15.32400381 36457
RS26S (KAI-1)           
1 53378U 22096J   23095.15215237  .00024470  00000+0  80663-3 0  9992
2 53378  97.4215   0.5637 0003198  64.2052  42.0913 15.31442526 36457
RS19S (SXC3-219 ISOI)   
1 53381U 22096M   23095.16160623  .00028641  00000+0  89496-3 0  9992
2 53381  97.4204   0.8560 0003022   7.0613 130.2918 15.33127192 36479
RS21S (CUBESX-HSE-2)    
1 53383U 22096P   23095.08023427  .00031726  00000+0  98445-3 0  9997
2 53383  97.4204   0.8077 0003202   5.5361 108.6688 15.33328232 36467
RS30S (SXC3-217 SIREN)  
1 53384U 22096Q   23095.25096056  .00026409  00000+0  84355-3 0  9992
2 53384  97.4211   0.8938 0003031 355.2059 127.7042 15.32441227 36488
RS20S (GEOSCAN-EDELVEIS)
1 53385U 22096R   23095.07027413  .00040506  00000+0  11671-2 0  9998
2 53385  97.4195   1.1135 0003239   1.2383 111.7795 15.35618950 36515
RS33S (SXC3-215 VIZARD) 
1 53386U 22096S   23095.13121216  .00051839  00000+0  13869-2 0  9994
2 53386  97.4184   1.4993 0003481   1.1917 139.2050 15.37871601 36537
CAS-5A (FO-118)         
1 54684U 22167C   23095.22459671  .00018341  00000+0  10652-2 0  9992
2 54684  97.5488 233.4487 0014029 223.1864 258.3980 15.12084783 17645
